KUIPER-00125            
1 65954U 25228H   26019.58335648 -.00735650  00000+0 -52644-1 0  9997
2 65954  51.8976 199.4841 0004046 164.5122 168.6355 15.06726091  4171
KUIPER-00126            
1 65955U 25228J   26019.56735375  .00002812  00000+0  39747-3 0  9993
2 65955  51.8972 217.8282 0000776 118.5468 241.5572 14.79960007 15956
KUIPER-00127            
1 65956U 25228K   26019.55745552  .00004552  00000+0  40099-3 0  9996
2 65956  51.8936 211.6676 0005528 185.7145 174.3763 14.98192313 16048
KUIPER-00128            
1 65957U 25228L   26019.54175011  .00005508  00000+0  75074-3 0  9996
2 65957  51.8997 210.4488 0000620  89.5211 270.5822 14.79945926 16058
KUIPER-00129            
1 65958U 25228M   26019.58335648 -.00039343  00000+0 -48229-2 0  9992
2 65958  51.8980 205.3135 0000234  16.6735 324.0018 14.82763294  5887
KUIPER-00130            
1 65959U 25228N   26019.58335648 -.00038827  00000+0 -49529-2 0  9993
2 65959  51.9004 207.7584 0001049 151.6975  50.2351 14.81101909  5810
KUIPER-00134            
1 65960U 25228P   26019.64821089  .00024450  00000+0  67885-3 0  9992
2 65960  51.8746 197.6226 0007520 148.0906 212.0537 15.36734256 16249
KUIPER-00135            
1 65961U 25228Q   26019.58335648 -.00029154  00000+0 -36803-2 0  9990
2 65961  51.8997 207.8306 0000635  30.3557 347.2526 14.81397974  5648
