<?xml version="1.0" encoding="UTF-8"?>
<ndm xmlns:xsi="http://www.w3.org/2001/XMLSchema-instance" xsi:noNamespaceSchemaLocation="https://sanaregistry.org/r/ndmxml_unqualified/ndmxml-2.0.0-master-2.0.xsd">
<omm id="CCSDS_OMM_VERS" version="2.0">
<header><CREATION_DATE/><ORIGINATOR/></header><body><segment><metadata><OBJECT_NAME>KUIPER-00125</OBJECT_NAME><OBJECT_ID>2025-228H</OBJECT_ID><CENTER_NAME>EARTH</CENTER_NAME><REF_FRAME>TEME</REF_FRAME><TIME_SYSTEM>UTC</TIME_SYSTEM><MEAN_ELEMENT_THEORY>SGP4</MEAN_ELEMENT_THEORY></metadata><data><meanElements><EPOCH>2026-01-19T14:00:01.999872</EPOCH><MEAN_MOTION>15.06726091</MEAN_MOTION><ECCENTRICITY>.00040466</ECCENTRICITY><INCLINATION>51.8976</INCLINATION><RA_OF_ASC_NODE>199.4841</RA_OF_ASC_NODE><ARG_OF_PERICENTER>164.5122</ARG_OF_PERICENTER><MEAN_ANOMALY>168.6355</MEAN_ANOMALY></meanElements><tleParameters><EPHEMERIS_TYPE>0</EPHEMERIS_TYPE><CLASSIFICATION_TYPE>U</CLASSIFICATION_TYPE><NORAD_CAT_ID>65954</NORAD_CAT_ID><ELEMENT_SET_NO>999</ELEMENT_SET_NO><REV_AT_EPOCH>417</REV_AT_EPOCH><BSTAR>-.52644235E-1</BSTAR><MEAN_MOTION_DOT>-.73565E-2</MEAN_MOTION_DOT><MEAN_MOTION_DDOT>0</MEAN_MOTION_DDOT></tleParameters></data></segment></body></omm>
<omm id="CCSDS_OMM_VERS" version="2.0">
<header><CREATION_DATE/><ORIGINATOR/></header><body><segment><metadata><OBJECT_NAME>KUIPER-00126</OBJECT_NAME><OBJECT_ID>2025-228J</OBJECT_ID><CENTER_NAME>EARTH</CENTER_NAME><REF_FRAME>TEME</REF_FRAME><TIME_SYSTEM>UTC</TIME_SYSTEM><MEAN_ELEMENT_THEORY>SGP4</MEAN_ELEMENT_THEORY></metadata><data><meanElements><EPOCH>2026-01-19T13:36:59.364000</EPOCH><MEAN_MOTION>14.79960007</MEAN_MOTION><ECCENTRICITY>.00007766</ECCENTRICITY><INCLINATION>51.8972</INCLINATION><RA_OF_ASC_NODE>217.8282</RA_OF_ASC_NODE><ARG_OF_PERICENTER>118.5468</ARG_OF_PERICENTER><MEAN_ANOMALY>241.5572</MEAN_ANOMALY></meanElements><tleParameters><EPHEMERIS_TYPE>0</EPHEMERIS_TYPE><CLASSIFICATION_TYPE>U</CLASSIFICATION_TYPE><NORAD_CAT_ID>65955</NORAD_CAT_ID><ELEMENT_SET_NO>999</ELEMENT_SET_NO><REV_AT_EPOCH>1595</REV_AT_EPOCH><BSTAR>.39746972E-3</BSTAR><MEAN_MOTION_DOT>.2812E-4</MEAN_MOTION_DOT><MEAN_MOTION_DDOT>0</MEAN_MOTION_DDOT></tleParameters></data></segment></body></omm>
<omm id="CCSDS_OMM_VERS" version="2.0">
<header><CREATION_DATE/><ORIGINATOR/></header><body><segment><metadata><OBJECT_NAME>KUIPER-00127</OBJECT_NAME><OBJECT_ID>2025-228K</OBJECT_ID><CENTER_NAME>EARTH</CENTER_NAME><REF_FRAME>TEME</REF_FRAME><TIME_SYSTEM>UTC</TIME_SYSTEM><MEAN_ELEMENT_THEORY>SGP4</MEAN_ELEMENT_THEORY></metadata><data><meanElements><EPOCH>2026-01-19T13:22:44.156928</EPOCH><MEAN_MOTION>14.98192313</MEAN_MOTION><ECCENTRICITY>.00055285</ECCENTRICITY><INCLINATION>51.8936</INCLINATION><RA_OF_ASC_NODE>211.6676</RA_OF_ASC_NODE><ARG_OF_PERICENTER>185.7145</ARG_OF_PERICENTER><MEAN_ANOMALY>174.3763</MEAN_ANOMALY></meanElements><tleParameters><EPHEMERIS_TYPE>0</EPHEMERIS_TYPE><CLASSIFICATION_TYPE>U</CLASSIFICATION_TYPE><NORAD_CAT_ID>65956</NORAD_CAT_ID><ELEMENT_SET_NO>999</ELEMENT_SET_NO><REV_AT_EPOCH>1604</REV_AT_EPOCH><BSTAR>.40098901E-3</BSTAR><MEAN_MOTION_DOT>.4552E-4</MEAN_MOTION_DOT><MEAN_MOTION_DDOT>0</MEAN_MOTION_DDOT></tleParameters></data></segment></body></omm>
<omm id="CCSDS_OMM_VERS" version="2.0">
<header><CREATION_DATE/><ORIGINATOR/></header><body><segment><metadata><OBJECT_NAME>KUIPER-00128</OBJECT_NAME><OBJECT_ID>2025-228L</OBJECT_ID><CENTER_NAME>EARTH</CENTER_NAME><REF_FRAME>TEME</REF_FRAME><TIME_SYSTEM>UTC</TIME_SYSTEM><MEAN_ELEMENT_THEORY>SGP4</MEAN_ELEMENT_THEORY></metadata><data><meanElements><EPOCH>2026-01-19T13:00:07.209504</EPOCH><MEAN_MOTION>14.79945926</MEAN_MOTION><ECCENTRICITY>.00006201</ECCENTRICITY><INCLINATION>51.8997</INCLINATION><RA_OF_ASC_NODE>210.4488</RA_OF_ASC_NODE><ARG_OF_PERICENTER>89.5211</ARG_OF_PERICENTER><MEAN_ANOMALY>270.5822</MEAN_ANOMALY></meanElements><tleParameters><EPHEMERIS_TYPE>0</EPHEMERIS_TYPE><CLASSIFICATION_TYPE>U</CLASSIFICATION_TYPE><NORAD_CAT_ID>65957</NORAD_CAT_ID><ELEMENT_SET_NO>999</ELEMENT_SET_NO><REV_AT_EPOCH>1605</REV_AT_EPOCH><BSTAR>.75074097E-3</BSTAR><MEAN_MOTION_DOT>.5508E-4</MEAN_MOTION_DOT><MEAN_MOTION_DDOT>0</MEAN_MOTION_DDOT></tleParameters></data></segment></body></omm>
<omm id="CCSDS_OMM_VERS" version="2.0">
<header><CREATION_DATE/><ORIGINATOR/></header><body><segment><metadata><OBJECT_NAME>KUIPER-00129</OBJECT_NAME><OBJECT_ID>2025-228M</OBJECT_ID><CENTER_NAME>EARTH</CENTER_NAME><REF_FRAME>TEME</REF_FRAME><TIME_SYSTEM>UTC</TIME_SYSTEM><MEAN_ELEMENT_THEORY>SGP4</MEAN_ELEMENT_THEORY></metadata><data><meanElements><EPOCH>2026-01-19T14:00:01.999872</EPOCH><MEAN_MOTION>14.82763294</MEAN_MOTION><ECCENTRICITY>.00002349</ECCENTRICITY><INCLINATION>51.8980</INCLINATION><RA_OF_ASC_NODE>205.3135</RA_OF_ASC_NODE><ARG_OF_PERICENTER>16.6735</ARG_OF_PERICENTER><MEAN_ANOMALY>324.0018</MEAN_ANOMALY></meanElements><tleParameters><EPHEMERIS_TYPE>0</EPHEMERIS_TYPE><CLASSIFICATION_TYPE>U</CLASSIFICATION_TYPE><NORAD_CAT_ID>65958</NORAD_CAT_ID><ELEMENT_SET_NO>999</ELEMENT_SET_NO><REV_AT_EPOCH>588</REV_AT_EPOCH><BSTAR>-.48228843E-2</BSTAR><MEAN_MOTION_DOT>-.39343E-3</MEAN_MOTION_DOT><MEAN_MOTION_DDOT>0</MEAN_MOTION_DDOT></tleParameters></data></segment></body></omm>
<omm id="CCSDS_OMM_VERS" version="2.0">
<header><CREATION_DATE/><ORIGINATOR/></header><body><segment><metadata><OBJECT_NAME>KUIPER-00130</OBJECT_NAME><OBJECT_ID>2025-228N</OBJECT_ID><CENTER_NAME>EARTH</CENTER_NAME><REF_FRAME>TEME</REF_FRAME><TIME_SYSTEM>UTC</TIME_SYSTEM><MEAN_ELEMENT_THEORY>SGP4</MEAN_ELEMENT_THEORY></metadata><data><meanElements><EPOCH>2026-01-19T14:00:01.999872</EPOCH><MEAN_MOTION>14.81101909</MEAN_MOTION><ECCENTRICITY>.00010498</ECCENTRICITY><INCLINATION>51.9004</INCLINATION><RA_OF_ASC_NODE>207.7584</RA_OF_ASC_NODE><ARG_OF_PERICENTER>151.6975</ARG_OF_PERICENTER><MEAN_ANOMALY>50.2351</MEAN_ANOMALY></meanElements><tleParameters><EPHEMERIS_TYPE>0</EPHEMERIS_TYPE><CLASSIFICATION_TYPE>U</CLASSIFICATION_TYPE><NORAD_CAT_ID>65959</NORAD_CAT_ID><ELEMENT_SET_NO>999</ELEMENT_SET_NO><REV_AT_EPOCH>581</REV_AT_EPOCH><BSTAR>-.49529381E-2</BSTAR><MEAN_MOTION_DOT>-.38827E-3</MEAN_MOTION_DOT><MEAN_MOTION_DDOT>0</MEAN_MOTION_DDOT></tleParameters></data></segment></body></omm>
<omm id="CCSDS_OMM_VERS" version="2.0">
<header><CREATION_DATE/><ORIGINATOR/></header><body><segment><metadata><OBJECT_NAME>KUIPER-00134</OBJECT_NAME><OBJECT_ID>2025-228P</OBJECT_ID><CENTER_NAME>EARTH</CENTER_NAME><REF_FRAME>TEME</REF_FRAME><TIME_SYSTEM>UTC</TIME_SYSTEM><MEAN_ELEMENT_THEORY>SGP4</MEAN_ELEMENT_THEORY></metadata><data><meanElements><EPOCH>2026-01-19T15:33:25.420896</EPOCH><MEAN_MOTION>15.36734256</MEAN_MOTION><ECCENTRICITY>.00075206</ECCENTRICITY><INCLINATION>51.8746</INCLINATION><RA_OF_ASC_NODE>197.6226</RA_OF_ASC_NODE><ARG_OF_PERICENTER>148.0906</ARG_OF_PERICENTER><MEAN_ANOMALY>212.0537</MEAN_ANOMALY></meanElements><tleParameters><EPHEMERIS_TYPE>0</EPHEMERIS_TYPE><CLASSIFICATION_TYPE>U</CLASSIFICATION_TYPE><NORAD_CAT_ID>65960</NORAD_CAT_ID><ELEMENT_SET_NO>999</ELEMENT_SET_NO><REV_AT_EPOCH>1624</REV_AT_EPOCH><BSTAR>.67885179E-3</BSTAR><MEAN_MOTION_DOT>.2445E-3</MEAN_MOTION_DOT><MEAN_MOTION_DDOT>0</MEAN_MOTION_DDOT></tleParameters></data></segment></body></omm>
<omm id="CCSDS_OMM_VERS" version="2.0">
<header><CREATION_DATE/><ORIGINATOR/></header><body><segment><metadata><OBJECT_NAME>KUIPER-00135</OBJECT_NAME><OBJECT_ID>2025-228Q</OBJECT_ID><CENTER_NAME>EARTH</CENTER_NAME><REF_FRAME>TEME</REF_FRAME><TIME_SYSTEM>UTC</TIME_SYSTEM><MEAN_ELEMENT_THEORY>SGP4</MEAN_ELEMENT_THEORY></metadata><data><meanElements><EPOCH>2026-01-19T14:00:01.999872</EPOCH><MEAN_MOTION>14.81397974</MEAN_MOTION><ECCENTRICITY>.00006358</ECCENTRICITY><INCLINATION>51.8997</INCLINATION><RA_OF_ASC_NODE>207.8306</RA_OF_ASC_NODE><ARG_OF_PERICENTER>30.3557</ARG_OF_PERICENTER><MEAN_ANOMALY>347.2526</MEAN_ANOMALY></meanElements><tleParameters><EPHEMERIS_TYPE>0</EPHEMERIS_TYPE><CLASSIFICATION_TYPE>U</CLASSIFICATION_TYPE><NORAD_CAT_ID>65961</NORAD_CAT_ID><ELEMENT_SET_NO>999</ELEMENT_SET_NO><REV_AT_EPOCH>564</REV_AT_EPOCH><BSTAR>-.36803428E-2</BSTAR><MEAN_MOTION_DOT>-.29154E-3</MEAN_MOTION_DOT><MEAN_MOTION_DDOT>0</MEAN_MOTION_DDOT></tleParameters></data></segment></body></omm>

</ndm>
